GOES 17                 
1 43226U 18022A   20178.59460155  .00000097  00000-0  00000-0 0  9999
2 43226   0.0508 220.5586 0000335 201.5532 289.9162  1.00271815  8537
HISPASAT 30W-6          
1 43228U 18023A   20178.45016878 -.00000217  00000-0  00000+0 0  9990
2 43228   0.0405  45.7357 0005522  33.2637 328.0909  1.00271705  8629
SUPERBIRD 8             
1 43271U 18033A   20178.56025299 -.00000094  00000-0  00000-0 0  9992
2 43271   0.0136  29.8417 0001306  60.4387 188.5182  1.00268500  8179
HYLAS 4                 
1 43272U 18033B   20178.16240845 -.00000234  00000-0  00000+0 0  9990
2 43272   0.0714 120.6141 0003690  35.8108 143.2730  1.00268714  8209
IRNSS-1I                
1 43286U 18035A   20177.89283053  .00000096  00000-0  00000+0 0  9999
2 43286  29.1712 109.2962 0018563 185.9268 355.6372  1.00273764  8186
USA 283                 
1 43339U 18036A   20177.54998907 -.00000317  00000-0  00000+0 0  9999
2 43339   0.0092 351.9655 0001332 337.1166 277.1378  1.00268674  3423
COSMOS 2526             
1 43432U 18037A   20178.55353582 -.00000346  00000-0  00000-0 0  9993
2 43432   0.0189  72.4693 0000810  41.7253 128.2648  1.00274123  8108
APSTAR 6C               
1 43450U 18041A   20178.26757586 -.00000319  00000-0  00000+0 0  9997
2 43450   0.0006  81.7570 0002582   5.4806  57.9076  1.00268021  7968
BANGABANDHUSAT-1        
1 43463U 18044A   20178.51368663 -.00000364  00000-0  00000-0 0  9997
2 43463   0.0146  72.7939 0001899  33.2897 113.0157  1.00272485  7834
SES-12                  
1 43488U 18049A   20178.58660531 -.00000270  00000-0  00000-0 0  9991
2 43488   0.0223  47.8567 0000817 198.4959 334.9856  1.00267643  7558
FENGYUN 2H              
1 43491U 18050A   20178.59215948 -.00000130  00000-0  00000-0 0  9991
2 43491   0.6365 273.9530 0003440 221.6561  72.0998  1.00270526  7630
BEIDOU IGSO-7           
1 43539U 18057A   20178.65576730 -.00000073  00000-0  00000-0 0  9993
2 43539  55.0429 182.1654 0029906 215.0378 226.9831  1.00264744  7286
TELSTAR 19V             
1 43562U 18059A   20178.33769007 -.00000280  00000-0  00000+0 0  9996
2 43562   0.0179  66.6001 0002560  78.5356 188.3424  1.00270900  7281
TELKOM 4 (MERAH PUTIH)  
1 43587U 18064A   20178.59513948 -.00000345  00000-0  00000-0 0  9991
2 43587   0.0189 335.1481 0001268 136.7681 125.5031  1.00272381  6996
TELSTAR 18V (APSTAR 5C) 
1 43611U 18069A   20178.57353684 -.00000295  00000-0  00000-0 0  9995
2 43611   0.0181  28.5123 0002026  64.6405 166.4670  1.00270108  6750
AZERSPACE 2 (IS-38)     
1 43632U 18074A   20178.53697935  .00000135  00000-0  00000-0 0  9992
2 43632   0.0181  26.8019 0001408  50.4220  76.3156  1.00271917  6633
HORIZONS 3E             
1 43633U 18074B   20178.56164876 -.00000032  00000-0  00000-0 0  9996
2 43633   0.0178 179.0362 0000724 100.1710   7.1039  1.00269439  6479
AEHF-4 (USA 288)        
1 43651U 18079A   20178.58486148  .00000129  00000-0  00000-0 0  9998
2 43651   3.8572 311.1911 0005020 149.1160 235.3089  1.00272621  6425
BEIDOU-3 G1             
1 43683U 18085A   20178.55589119 -.00000279  00000-0  00000-0 0  9996
2 43683   1.7480 255.1930 0004012 345.9353  14.1475  1.00268118  6184
GSAT-29                 
1 43698U 18089A   20178.56924598  .00000084  00000-0  00000-0 0  9994
2 43698   0.0386 104.2652 0002844 327.5087 103.3178  1.00269935  5912
ES'HAIL 2               
1 43700U 18090A   20178.31774694  .00000144  00000-0  00000+0 0  9999
2 43700   0.0093  47.6180 0001176  64.6771 302.7673  1.00271854  6046
GEO-KOMPSAT-2A          
1 43823U 18100A   20178.55353582 -.00000345  00000-0  00000-0 0  9997
2 43823   0.0457 183.3802 0001961 247.7396 171.5311  1.00272929  5734
GSAT-11                 
1 43824U 18100B   20178.59215948 -.00000078  00000-0  00000-0 0  9998
2 43824   0.0367 247.6443 0007668 209.7646 104.9330  1.00271408  5648
GSAT-7A                 
1 43864U 18105A   20178.55674435  .00000025  00000-0  00000-0 0  9994
2 43864   0.0296 110.8336 0002395 334.8753  92.6087  1.00271788  5605
COSMOS 2533             
1 43867U 18107A   20178.54195181 -.00000040  00000-0  00000-0 0  9992
2 43867   0.0219  87.9003 0000190 158.9576 293.3452  1.00272683  5541
TJS-3                   
1 43874U 18110A   20178.70606909  .00000001  00000-0  00000+0 0  9992
2 43874   0.0784  89.4511 0005195  84.4808 168.4926  1.00273784  5606
TJS-3 AKM               
1 43917U 18110C   20178.70054925  .00000055  00000-0  00000+0 0  9994
2 43917   0.0939 246.6612 0002587 214.9756 124.8575  1.00274732  5463
CHINASAT 2D (ZX 2D)     
1 43920U 19001A   20178.43821414 -.00000338  00000-0  00000-0 0  9999
2 43920   0.0184 177.6367 0002633 230.2361 154.9055  1.00272705  5481
HELLAS-SAT 4 & SGS-1    
1 44034U 19007A   20178.53575806  .00000151  00000-0  00000-0 0  9996
2 44034   0.0749 125.5030 0005731  14.6303   6.8131  1.00269887  5517
GSAT-31                 
1 44035U 19007B   20178.18660330  .00000125  00000-0  00000+0 0  9995
2 44035   0.0726 109.2319 0000485 294.1023 346.4646  1.00271880  5089
NUSANTARA SATU          
1 44048U 19009A   20178.55711250 -.00000236  00000-0  00000-0 0  9995
2 44048   0.0161  32.7664 0001857  58.8188 170.1113  1.00270535  4884
CHINASAT 6C (ZX 6C)     
1 44067U 19012A   20178.03556527 -.00000338  00000-0  99999+0 0  9994
2 44067   0.0517 257.2295 0001152  35.1567 125.0038  1.00267648  4854
WGS 10 (USA 291)        
1 44071U 19014A   20178.19735740  .00000138  00000-0  00000+0 0  9996
2 44071   0.1101 100.0598 0000347 328.4103 301.3612  1.00271478  4739
TIANLIAN 2-01           
1 44076U 19017A   20178.59215948 -.00000137  00000-0  00000-0 0  9992
2 44076   1.9853 286.2926 0033399 210.9649  71.1373  1.00273264  4733
ARABSAT-6A              
1 44186U 19021A   20178.53410057  .00000152  00000-0  00000-0 0  9997
2 44186   0.0421 355.6194 0000991 166.4783 335.7493  1.00270563  4326
BEIDOU-3 IGSO-1         
1 44204U 19023A   20177.77590647 -.00000221  00000-0  10000-3 0  9991
2 44204  55.5081  60.8205 0016393 181.7800  63.3100  1.00292037  4470
BEIDOU-2 G8             
1 44231U 19027A   20178.63101784 -.00000248  00000-0  00000-0 0  9996
2 44231   0.9637 297.4452 0006441 272.1460  77.3040  1.00269021  4210
YAMAL 601               
1 44307U 19031A   20178.64230894  .00000118  00000-0  00000-0 0  9996
2 44307   0.0089  12.8780 0001680  51.8423 130.7313  1.00272749  4050
AT&T T-16               
1 44333U 19034A   20178.39493743 -.00000116  00000-0  00000+0 0  9992
2 44333   0.0128 313.5571 0000466  36.5064 326.2263  1.00274290  3760
EUTELSAT 7C             
1 44334U 19034B   20178.52938983  .00000047  00000-0  00000-0 0  9991
2 44334   0.0144  31.4837 0003619  47.3433  33.8676  1.00270844  4247
BEIDOU-3 IGSO-2         
1 44337U 19035A   20178.30801728 -.00000066  00000-0  00000-0 0  9999
2 44337  55.0674 178.2232 0014617 190.7983 123.6842  1.00287234  3816
COSMOS 2539             
1 44457U 19048A   20178.38668714  .00000080  00000-0  00000-0 0  9995
2 44457   0.0336  91.3285 0000205 207.6000 127.2384  1.00269759  3322
EDRS-C                  
1 44475U 19049A   20178.15029791  .00000154  00000-0  00000+0 0  9998
2 44475   0.0307 296.8539 0000475 138.3560 284.7938  1.00272120  3313
INTELSAT 39 (IS-39)     
1 44476U 19049B   20178.46857557  .00000033  00000-0  00000-0 0  9999
2 44476   0.0164 335.9768 0001314 342.2672 187.4310  1.00270666  3313
AMOS-17                 
1 44479U 19050A   20178.31600222  .00000109  00000-0  00000+0 0  9996
2 44479   0.0163 303.7147 0001887 147.8314 314.0992  1.00272115  3311
AEHF-5 (USA 292)        
1 44481U 19051A   20178.26385271  .00000023  00000-0  00000-0 0  9994
2 44481   5.9545 308.2843 0002906 158.7256 248.7481  1.01118891  3399
EUTELSAT 5 WEST B       
1 44624U 19067A   20178.38337216 -.00000043  00000-0  00000-0 0  9992
2 44624   0.0393  11.6291 0006311  93.1826 303.1520  1.00271365  2570
TJS-4                   
1 44637U 19070A   20178.60203006 -.00000170  00000-0  00000-0 0  9995
2 44637   0.0559 109.2076 0002106 313.7370 152.4174  1.00271693  2693
BEIDOU-3 IGSO-3         
1 44709U 19073A   20178.37607872 -.00000181  00000-0  10000-3 0  9997
2 44709  58.3847 303.8097 0023916 184.4372  29.4742  1.00279915  2577
TIBA-1                  
1 44800U 19080A   20178.53506016  .00000155  00000-0  00000-0 0  9999
2 44800   0.0497  11.9914 0001906  86.5630  44.6639  1.00272228  2195
INMARSAT GX5            
1 44801U 19080B   20178.23529884 -.00000205  00000-0  00000-0 0  9992
2 44801   0.0491  93.0776 0003114  27.0011 211.4325  1.00270628  2225
JCSAT-18 (KACIFIC 1)    
1 44868U 19091A   20178.55789762 -.00000202  00000-0  00000-0 0  9992
2 44868   0.0457 144.2476 0000657  24.5187  97.1810  1.00269578  2142
ELEKTRO-L 3             
1 44903U 19095A   20178.59215948 -.00000091  00000-0  00000-0 0  9996
2 44903   0.1428 285.6201 0017137 225.5145  58.3091  1.00018740  1855
SHIJIAN-20 (SJ-20)      
1 44910U 19097A   20178.72340266 -.00000354  00000-0  00000+0 0  9994
2 44910   0.2404  93.8990 0007218 120.9066  86.5645  1.00265941  1823
GSAT-30                 
1 45026U 20005A   20178.60202747 -.00000166  00000-0  00000-0 0  9994
2 45026   0.0139  24.9515 0005994  52.8190 137.1431  1.00269089  1646
JCSAT-17                
1 45245U 20013A   20177.81595326 -.00000315  00000-0  00000+0 0  9991
2 45245   6.8893 344.0534 0002652 134.1260 225.9692  1.00272961  1364
GEO-KOMPSAT-2B          
1 45246U 20013B   20178.50813522 -.00000345  00000-0  00000-0 0  9994
2 45246   0.0183 240.5327 0000396  71.2416 274.4885  1.00270000  1387
BEIDOU-3 G2             
1 45344U 20017A   20178.54563300 -.00000142  00000-0  00000-0 0  9992
2 45344   2.9450 328.3005 0002678 126.0145  97.2791  1.00270944  1390
